STARLINK-35726          
1 66280U 25247R   25331.25002315  .00023795  00000+0  60343-3 0  9998
2 66280  53.1588 310.3721 0001406  80.0027   1.2089 15.39597753  5121
STARLINK-35727          
1 66281U 25247S   25331.25002315  .00040348  00000+0  10141-2 0  9992
2 66281  53.1596 310.2728 0002116  86.2827  44.4840 15.39597676  5120
STARLINK-35776          
1 66282U 25247T   25331.25002315  .00041169  00000+0  10342-2 0  9998
2 66282  53.1598 310.2684 0001984  87.4349  45.2055 15.39603102  5127
STARLINK-35774          
1 66283U 25247U   25331.25002315  .00044576  00000+0  11199-2 0  9995
2 66283  53.1599 310.2208 0001339  90.4072  66.2378 15.39563657  5123
STARLINK-35830          
1 66284U 25247V   25331.25002315  .00044240  00000+0  11115-2 0  9992
2 66284  53.1600 310.2166 0001231  84.7322  73.7725 15.39565798  5122
STARLINK-35819          
1 66285U 25247W   25331.25002315 -.01952923  00000+0 -49027-1 0  9994
2 66285  53.1597 310.1777 0001384  73.2360 104.8494 15.42862893  5072
STARLINK-35783          
1 66286U 25247X   25331.15292741 -.00443101  00000+0 -10192-1 0  9991
2 66286  53.1597 310.6326 0001034  80.7867 279.3256 15.43800204  5292
STARLINK-34884          
1 66287U 25247Y   25331.08564698  .00077540  00000+0  14128-2 0  9999
2 66287  53.1593 310.9235 0006733 291.9475  68.0818 15.48792255  5280
STARLINK-34896          
1 66288U 25247Z   25331.25002315 -.02005983  00000+0 -45811-1 0  9990
2 66288  53.1594 310.1433 0001460  84.4484 110.6627 15.45717002  5401
STARLINK-35802          
1 66289U 25247AA  25331.21386522 -.00180138  00000+0 -33400-2 0  9998
2 66289  53.1595 310.3007 0001168 105.7631 254.3507 15.49018024  5302
STARLINK-35799          
1 66290U 25247AB  25331.27826389 -.03661390  00000+0 -93598-1 0  9996
2 66290  53.1620 309.9907 0033968  69.5002 290.9645 15.42644417  5367
STARLINK-35800          
1 66291U 25247AC  25331.21279150  .00063648  00000+0  11420-2 0  9991
2 66291  53.1595 310.2932 0001414  99.2581 260.8588 15.49336406  5359
